NORAD_CAT_ID,OBJECT_NAME,OBJECT_TYPE,EPOCH,MEAN_MOTION,ECCENTRICITY,INCLINATION,RA_OF_ASC_NODE,ARG_OF_PERICENTER,MEAN_ANOMALY,BSTAR,MEAN_MOTION_DOT,MEAN_MOTION_DDOT,TLE_LINE0,TLE_LINE1,TLE_LINE2,SEMIMAJOR_AXIS,PERIOD,APOGEE,PERIGEE,DECAYED
53181.0,STARLINK-4273,PAYLOAD,2022-08-14 14:00:01,15.73218781,0.0002836999999999,53.2166,268.2735,10.6332,336.1523,-0.00018605,-0.00026677,0.0,0 STARLINK-4273,1 53181U 22083BB  22226.58334491 -.00026677  00000-0 -18605-3 0  9997,2 53181  53.2166 268.2735 0002837  10.6332 336.1523 15.73218781  5057,6727.842,91.532,351.615,347.798,0.0
53181.0,STARLINK-4273,PAYLOAD,2022-08-14 22:00:00,15.73180814,0.0002609,53.2166,266.622,10.5811,65.1704,0.00043517,0.00060852,0.0,0 STARLINK-4273,1 53181U 22083BB  22226.91667824  .00060852  00000-0  43517-3 0  9994,2 53181  53.2166 266.6220 0002609  10.5811  65.1704 15.73180814  1305,6727.95,91.534,351.57,348.06,0.0
53181.0,STARLINK-4273,PAYLOAD,2022-08-15 04:00:00,15.7325151,0.0002661999999999,53.2166,265.3849,14.6035,37.8302,-0.00056864,-0.00079865,0.0,0 STARLINK-4273,1 53181U 22083BB  22227.16667824 -.00079865  00000-0 -56864-3 0  9997,2 53181  53.2166 265.3849 0002662  14.6035  37.8302 15.73251510  5148,6727.748000000001,91.53,351.404,347.82199999999995,0.0
53181.0,STARLINK-4273,PAYLOAD,2022-08-15 14:00:01,15.7315764,0.0002973999999999,53.2159,263.3248,15.5195,238.0913,0.00051211,0.00071747,0.0,0 STARLINK-4273,1 53181U 22083BB  22227.58334491  .00071747  00000-0  51211-3 0  9994,2 53181  53.2159 263.3248 0002974  15.5195 238.0913 15.73157640  1300,6728.016,91.536,351.88199999999995,347.88,0.0
53181.0,STARLINK-4273,PAYLOAD,2022-08-15 22:00:00,15.73210648,0.0002689,53.2161,261.6732,15.9716,326.5609,-0.0001523,-0.00021955,0.0,0 STARLINK-4273,1 53181U 22083BB  22227.91667824 -.00021955  00000-0 -15230-3 0  9999,2 53181  53.2161 261.6732 0002689  15.9716 326.5609 15.73210648  5260,6727.865,91.533,351.539,347.921,0.0
53181.0,STARLINK-4273,PAYLOAD,2022-08-16 14:00:01,15.73187614,0.0002992,53.2163,258.3761,13.8323,146.5592,0.00052198,0.00073249,0.0,0 STARLINK-4273,1 53181U 22083BB  22228.58334491  .00073249  00000-0  52198-3 0  9999,2 53181  53.2163 258.3761 0002992  13.8323 146.5592 15.73187614  1303,6727.93,91.534,351.80800000000005,347.782,0.0
53181.0,STARLINK-4273,PAYLOAD,2022-08-16 22:00:00,15.73235804,0.0002742,53.2166,256.7245,13.5927,235.7429,-0.00011777,-0.00017146,0.0,0 STARLINK-4273,1 53181U 22083BB  22228.91667824 -.00017146  00000-0 -11777-3 0  9999,2 53181  53.2166 256.7245 0002742  13.5927 235.7429 15.73235804  1300,6727.793000000002,91.531,351.50300000000016,347.81300000000016,0.0
53181.0,STARLINK-4273,PAYLOAD,2022-08-17 06:00:02,15.73224095,0.0002842999999999,53.2164,255.076,11.4218,326.9409,-0.00025072,-0.00035704,0.0,0 STARLINK-4273,1 53181U 22083BB  22229.25002315 -.00035704  00000-0 -25072-3 0  9998,2 53181  53.2164 255.0760 0002843  11.4218 326.9409 15.73224095  5477,6727.826,91.532,351.60400000000016,347.779,0.0
53181.0,STARLINK-4273,PAYLOAD,2022-08-17 14:00:01,15.73179916,0.0002989,53.2158,253.4274,8.6534,58.5914,6.286e-05,8.202e-05,0.0,0 STARLINK-4273,1 53181U 22083BB  22229.58334491  .00008202  00000-0  62860-4 0  9995,2 53181  53.2158 253.4274 0002989   8.6534  58.5914 15.73179916  1300,6727.9519999999975,91.534,351.82800000000015,347.806,0.0
53181.0,STARLINK-4273,PAYLOAD,2022-08-18 06:00:02,15.73230534,0.0002773999999999,53.2168,250.1252,10.3381,234.7988,-1.7769000000000002e-05,-3.119e-05,0.0,0 STARLINK-4273,1 53181U 22083BB  22230.25002315 -.00003119  00000-0 -17769-4 0  9990,2 53181  53.2168 250.1252 0002774  10.3381 234.7988 15.73230534  5636,6727.808000000001,91.531,351.539,347.807,0.0
53181.0,STARLINK-4273,PAYLOAD,2022-08-18 14:00:01,15.73287323,0.0003045,53.2163,248.4788,10.8439,323.2266,-0.00047069,-0.00066427,0.0,0 STARLINK-4273,1 53181U 22083BB  22230.58334491 -.00066427  00000-0 -47069-3 0  9995,2 53181  53.2163 248.4788 0003045  10.8439 323.2266 15.73287323  1307,6727.646,91.528,351.56,347.463,0.0
53181.0,STARLINK-4273,PAYLOAD,2022-08-18 22:00:00,15.73187718,0.0002763,53.2163,246.8272,13.0628,50.028,0.0003865,0.00053949,0.0,0 STARLINK-4273,1 53181U 22083BB  22230.91667824  .00053949  00000-0  38650-3 0  9990,2 53181  53.2163 246.8272 0002763  13.0628  50.0280 15.73187718  5737,6727.93,91.534,351.654,347.936,0.0
53181.0,STARLINK-4273,PAYLOAD,2022-08-19 14:00:01,15.73162836,0.0003075,53.2154,243.5302,13.0054,227.9651,-1.6020999999999998e-05,-2.867e-05,0.0,0 STARLINK-4273,1 53181U 22083BB  22231.58334491 -.00002867  00000-0 -16021-4 0  9999,2 53181  53.2154 243.5302 0003075  13.0054 227.9651 15.73162836  1305,6728.001,91.535,351.935,347.797,0.0
53181.0,STARLINK-4273,PAYLOAD,2022-08-19 22:00:00,15.73141687,0.0002831,53.2156,241.8789,17.6727,312.1677,0.000354,0.00049235,0.0,0 STARLINK-4273,1 53181U 22083BB  22231.91667824  .00049235  00000-0  35400-3 0  9994,2 53181  53.2156 241.8789 0002831  17.6727 312.1677 15.73141687  1309,6728.061,91.537,351.831,348.022,0.0
53181.0,STARLINK-4273,PAYLOAD,2022-08-20 14:00:01,15.73162992,0.0003177999999999,53.2157,238.5822,21.3881,126.1898,0.00025859,0.00035774,0.0,0 STARLINK-4273,1 53181U 22083BB  22232.58334491  .00035774  00000-0  25859-3 0  9999,2 53181  53.2157 238.5822 0003178  21.3881 126.1898 15.73162992  1309,6728.001,91.535,352.004,347.728,0.0
53181.0,STARLINK-4273,PAYLOAD,2022-08-20 22:00:00,15.73156199,0.0002986,53.2157,236.931,24.0699,212.3992,0.00060104,0.00084437,0.0,0 STARLINK-4273,1 53181U 22083BB  22232.91667824  .00084437  00000-0  60104-3 0  9997,2 53181  53.2157 236.9310 0002986  24.0699 212.3992 15.73156199  6058,6728.02,91.536,351.894,347.876,0.0
53181.0,STARLINK-4273,PAYLOAD,2022-08-21 14:00:01,15.7321017,0.0003129999999999,53.2147,233.6338,21.0061,33.3198,-0.00022201,-0.00031686,0.0,0 STARLINK-4273,1 53181U 22083BB  22233.58334491 -.00031686  00000-0 -22201-3 0  9998,2 53181  53.2147 233.6338 0003130  21.0061  33.3198 15.73210170  1305,6727.866,91.533,351.837,347.625,0.0
53181.0,STARLINK-4273,PAYLOAD,2022-08-21 22:00:00,15.73167512,0.0002844,53.2148,231.9826,23.0505,120.1952,0.00056354,0.00079116,0.0,0 STARLINK-4273,1 53181U 22083BB  22233.91667824  .00079116  00000-0  56354-3 0  9998,2 53181  53.2148 231.9826 0002844  23.0505 120.1952 15.73167512  1309,6727.988,91.535,351.766,347.939,0.0
53181.0,STARLINK-4273,PAYLOAD,2022-08-22 06:00:00,15.73217187,0.0003078999999999,53.215,230.335,23.0245,209.139,0.00014226,0.00019407,0.0,0 STARLINK-4273,1 53181U 22083BB  22234.25001157  .00019407  00000-0  14226-3 0  9996,2 53181  53.2150 230.3350 0003079  23.0245 209.1390 15.73217187  6267,6727.846,91.532,351.783,347.64,0.0
53181.0,STARLINK-4273,PAYLOAD,2022-08-22 12:00:00,15.73221697,0.0003122,53.2149,229.0983,21.0142,187.8608,0.00040042,0.00056013,0.0,0 STARLINK-4273,1 53181U 22083BB  22234.50001157  .00056013  00000-0  40042-3 0  9993,2 53181  53.2149 229.0983 0003122  21.0142 187.8608 15.73221697  1300,6727.833000000001,91.532,351.7990000000001,347.598,0.0
53181.0,STARLINK-4273,PAYLOAD,2022-08-22 22:00:00,15.73214023,0.0002836,53.2151,227.034,21.7872,28.3193,0.00012176,0.00016512,0.0,0 STARLINK-4273,1 53181U 22083BB  22234.91667824  .00016512  00000-0  12176-3 0  9994,2 53181  53.2151 227.0340 0002836  21.7872  28.3193 15.73214023  1309,6727.855,91.532,351.62800000000016,347.81199999999984,0.0
53181.0,STARLINK-4273,PAYLOAD,2022-08-23 06:00:00,15.73211635,0.0003036,53.2147,225.3864,18.1485,120.9076,-0.00046661,-0.0006565,0.0,0 STARLINK-4273,1 53181U 22083BB  22235.25001157 -.00065650  00000-0 -46661-3 0  9998,2 53181  53.2147 225.3864 0003036  18.1485 120.9076 15.73211635  6422,6727.861999999999,91.533,351.77,347.684,0.0
53181.0,STARLINK-4273,PAYLOAD,2022-08-23 12:00:00,15.73166034,0.0003066,53.2142,224.1494,16.7052,99.04,0.00026387,0.00036525,0.0,0 STARLINK-4273,1 53181U 22083BB  22235.50001157  .00036525  00000-0  26387-3 0  9996,2 53181  53.2142 224.1494 0003066  16.7052  99.0400 15.73166034  6463,6727.9919999999975,91.535,351.92,347.7940000000001,0.0
53181.0,STARLINK-4273,PAYLOAD,2022-08-23 14:00:01,15.73192406,0.0002982,53.2141,223.7365,17.1043,210.8583,-7.0653e-05,-0.00010525,0.0,0 STARLINK-4273,1 53181U 22083BB  22235.58334491 -.00010525  00000-0 -70653-4 0  9994,2 53181  53.2141 223.7365 0002982  17.1043 210.8583 15.73192406  1300,6727.917,91.534,351.788,347.776,0.0
53181.0,STARLINK-4273,PAYLOAD,2022-08-23 22:00:01,15.73179426,0.000275,53.2144,222.0854,20.2028,296.7435,0.00049118,0.00068827,0.0,0 STARLINK-4273,1 53181U 22083BB  22235.91668981  .00068827  00000-0  49118-3 0  9992,2 53181  53.2144 222.0854 0002750  20.2028 296.7435 15.73179426  1305,6727.954000000002,91.534,351.6690000000001,347.969,0.0
53181.0,STARLINK-4273,PAYLOAD,2022-08-24 14:00:01,15.7325705,0.0002957,53.215,218.7865,18.4877,116.2686,-0.00015513,-0.00022395,0.0,0 STARLINK-4273,1 53181U 22083BB  22236.58334491 -.00022395  00000-0 -15513-3 0  9996,2 53181  53.2150 218.7865 0002957  18.4877 116.2686 15.73257050  1300,6727.733,91.53,351.587,347.608,0.0
53181.0,STARLINK-4273,PAYLOAD,2022-08-24 22:00:00,15.73228567,0.0002773999999999,53.2148,217.1367,19.4319,204.315,-0.00014471,-0.0002091,0.0,0 STARLINK-4273,1 53181U 22083BB  22236.91667824 -.00020910  00000-0 -14471-3 0  9995,2 53181  53.2148 217.1367 0002774  19.4319 204.3150 15.73228567  1302,6727.814,91.532,351.545,347.81199999999984,0.0
53181.0,STARLINK-4273,PAYLOAD,2022-08-25 14:00:01,15.73267054,0.0002901999999999,53.2141,213.8388,16.338,25.299,-0.00057001,-0.00080111,0.0,0 STARLINK-4273,1 53181U 22083BB  22237.58334491 -.00080111  00000-0 -57001-3 0  9995,2 53181  53.2141 213.8388 0002902  16.3380  25.2990 15.73267054  1304,6727.704000000002,91.529,351.521,347.617,0.0
53181.0,STARLINK-4273,PAYLOAD,2022-08-25 18:00:00,15.73204606,0.0002925,53.2173,213.0012,18.9954,247.0345,4.1404e-07,-5.65e-06,0.0,0 STARLINK-4273,1 53181U 22083BB  22237.75001157 -.00000565  00000-0  41404-6 0  9991,2 53181  53.2173 213.0012 0002925  18.9954 247.0345 15.73204606  6818,6727.882,91.533,351.715,347.779,0.0
